ONEWEB-0379             
1 49305U 21090AC  25093.53376244  .00000343  00000+0  89031-3 0  9999
2 49305  87.9089  17.1351 0001962  76.9712 283.1637 13.14505109169805
ONEWEB-0380             
1 49306U 21090AD  25093.29608444  .00000113  00000+0  24965-3 0  9993
2 49306  87.9245  32.4053 0001871  85.7322 274.4025 13.19722672168403
ONEWEB-0381             
1 49307U 21090AE  25093.16288062  .00000226  00000+0  52313-3 0  9993
2 49307  87.9334   2.0293 0001876  86.5153 273.6195 13.20774770171746
ONEWEB-0382             
1 49308U 21090AF  25093.75630450 -.00000002  00000+0 -37283-4 0  9995
2 49308  87.9332   1.9067 0002109  86.2128 273.9246 13.20769992173125
ONEWEB-0383             
1 49309U 21090AG  25093.29907039  .00000185  00000+0  46460-3 0  9991
2 49309  87.9085  17.1637 0002048  79.2889 280.8471 13.14503470169808
ONEWEB-0384             
1 49310U 21090AH  25093.44998989  .00000083  00000+0  17197-3 0  9996
2 49310  87.9335   1.9833 0002296  87.7400 272.3996 13.20778399171784
ONEWEB-0385             
1 49311U 21090AJ  25093.44538119  .00000125  00000+0  27572-3 0  9997
2 49311  87.9335   1.9848 0001962  82.2353 277.9003 13.20769336171755
ONEWEB-0386             
1 49312U 21090AK  25093.46274750  .00000198  00000+0  45425-3 0  9995
2 49312  87.9331   1.9565 0002187  82.8027 277.3355 13.20769359171773
